GALAXY 25 (G-25)        
1 24812U 97026A   22355.39620670 -.00000123  00000+0  00000+0 0  9996
2 24812   4.1558  81.7765 0000468 283.4108 232.7098  0.99038536 93602
INTELSAT 5 (IS-5)       
1 24916U 97046A   22355.50002025 -.00000046  00000+0  00000+0 0  9998
2 24916   7.6269  59.7389 0005760 195.3764 181.0681  1.00271934 92843
GALAXY 11 (G-11)        
1 26038U 99071A   22355.66354188 -.00000142  00000+0  00000+0 0  9999
2 26038   3.4966  85.3218 0001558 237.3991 273.2626  1.00270981 84300
INTELSAT 9 (IS-9)       
1 26451U 00043A   22356.20914372 -.00000273  00000+0  00000+0 0  9992
2 26451   7.6130  59.9138 0003482 204.6471 211.4761  1.00269634 82084
INTELSAT 1R (IS-1R)     
1 26608U 00072A   22355.42654014 -.00000118  00000+0  00000+0 0  9993
2 26608   4.8676  78.6710 0000134  49.1746 272.7826  1.00271836 28544
INTELSAT 10 (IS-10)     
1 26766U 01019A   22355.56681472  .00000052  00000+0  00000+0 0  9999
2 26766   6.0211  71.7487 0003720 196.9413 203.2867  1.00269683 79164
INTELSAT 901 (IS-901)   
1 26824U 01024A   22355.67658852 -.00000178  00000+0  00000+0 0  9998
2 26824   0.0137  33.8954 0000788 270.5606   1.8477  1.00269617 78819
INTELSAT 902 (IS-902)   
1 26900U 01039A   22356.46114708 -.00000264  00000+0  00000+0 0  9990
2 26900   2.8788  86.9191 0003675 187.9276 292.0567  1.00271475 78000
INTELSAT 904 (IS-904)   
1 27380U 02007A   22356.09702257 -.00000195  00000+0  00000+0 0  9993
2 27380   3.7063  83.9293 0002908 197.4717 174.6609  1.00271465 76327
DIRECTV 5 (TEMPO 1)     
1 27426U 02023A   22355.58840562 -.00000033  00000+0  00000+0 0  9998
2 27426   1.6024  90.9723 0002972 181.0500 279.8293  1.00271692 75539
INTELSAT 905 (IS-905)   
1 27438U 02027A   22356.43666348 -.00000167  00000+0  00000+0 0  9996
2 27438   3.5297  84.6424 0002442 185.6353 313.4003  1.00270223 75208
GALAXY 3C (G-3C)        
1 27445U 02030A   22355.40581997 -.00000127  00000+0  00000+0 0  9996
2 27445   0.4539  91.9733 0001142 231.1058 178.1355  1.00270314 33728
INTELSAT 906 (IS-906)   
1 27513U 02041A   22356.12530022  .00000035  00000+0  00000+0 0  9994
2 27513   2.5477  88.3313 0005042 169.9690 301.6101  1.00270576 74205
GALAXY 12 (G-12)        
1 27715U 03013B   22356.23694767  .00000076  00000+0  00000+0 0  9992
2 27715   3.7397  83.5889 0001625 192.1514 131.3383  1.00270646 72244
GALAXY 23 (G-23)        
1 27854U 03034A   22355.65796331  .00000037  00000+0  00000+0 0  9991
2 27854   0.0178   4.6285 0002517 267.4831 293.9613  1.00271685 75774
GALAXY 13 (HORIZONS-1)  
1 27954U 03044A   22355.47655796  .00000073  00000+0  00000+0 0  9992
2 27954   0.0172  64.5003 0001472 128.7845 301.2872  1.00269831 33803
INTELSAT 10-02          
1 28358U 04022A   22355.09910587  .00000015  00000+0  00000+0 0  9994
2 28358   0.0229  71.7429 0001111 240.5306 172.0760  1.00271212 67771
XM-3 (RHYTHM)           
1 28626U 05008A   22356.19090948 -.00000183  00000+0  00000+0 0  9996
2 28626   0.0188 125.6833 0001462  58.6307 250.0345  1.00268080 65301
DIRECTV 8               
1 28659U 05019A   22355.65839913  .00000025  00000+0  00000+0 0  9991
2 28659   0.0104  12.0738 0002655 257.2083 298.9208  1.00269374 64418
GALAXY 28 (G-28)        
1 28702U 05022A   22356.49632778 -.00000164  00000+0  00000+0 0  9992
2 28702   0.0178  60.5952 0003022 239.7088 240.4053  1.00271012 64066
GALAXY 14 (G-14)        
1 28790U 05030A   22355.79127162  .00000178  00000+0  00000+0 0  9990
2 28790   1.7355  90.1707 0001755 183.0327 134.8938  1.00272874 63539
GALAXY 15 (G-15)        
1 28884U 05041A   22355.47991608  .00000043  00000+0  00000+0 0  9996
2 28884   0.2895  92.6302 0004570 187.8570 219.5596  1.00312166 62847
SPACEWAY 2              
1 28903U 05046B   22355.65447670  .00000126  00000+0  00000+0 0  9990
2 28903   2.3315  86.1826 0000285 144.5640 316.1623  1.00270684 62725
GALAXY 16 (G-16)        
1 29236U 06023A   22356.19228299 -.00000104  00000+0  00000+0 0  9997
2 29236   0.0202  10.3354 0002398 267.1479 143.4574  1.00269810 60508
DIRECTV 9S              
1 29494U 06043A   22356.39355184 -.00000092  00000+0  00000+0 0  9997
2 29494   0.0141 299.0343 0002797 329.0709 223.3008  1.00271899 59347
XM-4 (BLUES)            
1 29520U 06049A   22356.39118965 -.00000184  00000+0  00000+0 0  9999
2 29520   0.0389 276.7227 0001625  48.2819 181.6492  1.00269958 59239
GALAXY 17 (G-17)        
1 31307U 07016B   22356.26167108 -.00000152  00000+0  00000+0 0  9994
2 31307   0.0192 339.1649 0003055 314.9491 159.8923  1.00269687 57319
DIRECTV 10              
1 31862U 07032A   22356.37273623 -.00000081  00000+0  00000+0 0  9991
2 31862   0.0069 114.0236 0000296  70.8370 297.4502  1.00270444 56648
SPACEWAY 3              
1 32018U 07036A   22355.01785303 -.00000126  00000+0  00000+0 0  9992
2 32018   0.7040  91.1811 0000663 353.5411 276.3336  1.00271011 33778
INTELSAT 11 (IS-11)     
1 32253U 07044B   22356.46254172 -.00000247  00000+0  00000+0 0  9991
2 32253   0.2661  93.9076 0003146 199.3958 281.2150  1.00271134 55765
HORIZONS-2              
1 32388U 07063B   22356.19793699 -.00000231  00000+0  00000+0 0  9996
2 32388   0.0152 341.5711 0001963 304.1646 162.4703  1.00271877 55117
DIRECTV 11              
1 32729U 08013A   22356.52271581 -.00000105  00000+0  00000+0 0  9999
2 32729   0.0440 152.4797 0000870 107.9376 279.6353  1.00271298 54178
GALAXY 18 (G-18)        
1 32951U 08024A   22356.45564017  .00000047  00000+0  00000+0 0  9993
2 32951   0.0179  17.6868 0002768 251.9450 222.3867  1.00269965 53325
INTELSAT 25 (IS-25)     
1 33153U 08034A   22356.25715428 -.00000202  00000+0  00000+0 0  9995
2 33153   0.0163 314.1977 0002694 315.4024 242.2751  1.00271331 52872
GALAXY 19 (G-19)        
1 33376U 08045A   22355.59102057 -.00000115  00000+0  00000+0 0  9991
2 33376   0.0160 331.0960 0002561 295.5171 299.3011  1.00271299 52066
FM-5                    
1 35493U 09034A   22356.19968845 -.00000178  00000+0  00000+0 0  9993
2 35493   0.0181  12.6552 0000396 125.7186 298.1136  1.00269375 49214
INTELSAT 14 (IS-14)     
1 36097U 09064A   22356.22310168 -.00000251  00000+0  00000+0 0  9992
2 36097   0.0125 317.5867 0002273 316.5479 211.9537  1.00270256 47935
INTELSAT 15 (IS-15)     
1 36106U 09067A   22356.10882647 -.00000162  00000+0  00000+0 0  9990
2 36106   0.0128   8.8603 0002030 261.1102 305.0104  1.00270561 47839
DIRECTV 12              
1 36131U 09075A   22356.37273626 -.00000082  00000+0  00000+0 0  9998
2 36131   0.0522 185.0751 0000173 313.8487 343.4521  1.00270085 47621
INTELSAT 16 (IS-16)     
1 36397U 10006A   22356.20591296 -.00000222  00000+0  00000+0 0  9992
2 36397   0.0103   3.3739 0001848 260.1395 185.1636  1.00271721 46951
XM-5                    
1 37185U 10053A   22356.38174345 -.00000002  00000+0  00000+0 0  9997
2 37185   0.0167 347.7233 0000945 155.7397 329.6960  1.00273524 44685
INTELSAT 17 (IS-17)     
1 37238U 10065B   22356.12564889  .00000021  00000+0  00000+0 0  9997
2 37238   0.0255 269.9773 0002606   7.2146 284.7106  1.00270558 44154
INTELSAT NEW DAWN       
1 37392U 11016A   22355.79118480  .00000179  00000+0  00000+0 0  9993
2 37392   0.0137 289.0251 0000560 327.8185 151.1084  1.00273072 42759
INTELSAT 18 (IS-18)     
1 37834U 11056A   22356.23938233  .00000075  00000+0  00000+0 0  9999
2 37834   0.0199   2.4563 0001687 266.3666  88.1407  1.00269013 41075
INTELSAT 22 (IS-22)     
1 38098U 12011A   22355.48127979 -.00000034  00000+0  00000+0 0  9993
2 38098   0.0128  93.0875 0002515 170.3091  71.9920  1.00271425 39043
INTELSAT 19 (IS-19)     
1 38356U 12030A   22355.55049326 -.00000032  00000+0  00000+0 0  9996
2 38356   0.0163 358.6557 0003098 277.1410 178.4989  1.00272381 37671
INTELSAT 20 (IS-20)     
1 38740U 12043A   22355.48058247  .00000000  00000+0  00000+0 0  9995
2 38740   0.0083  58.7404 0003437 140.8613 131.9396  1.00271102 37975
INTELSAT 21 (IS-21)     
1 38749U 12045A   22356.20794462 -.00000263  00000+0  00000+0 0  9995
2 38749   0.0116 325.4459 0001572 303.2113 198.9516  1.00271436 37879
INTELSAT 23 (IS-23)     
1 38867U 12057A   22356.17733174 -.00000262  00000+0  00000+0 0  9997
2 38867   0.0050  86.5601 0001335 253.5969 121.4172  1.00271378 37340
FM-6                    
1 39360U 13058A   22355.65892212  .00000007  00000+0  00000+0 0  9995
2 39360   0.0314  48.4066 0000212 328.9585 193.8711  1.00270670 33575
INTELSAT 30 (IS-30)     
1 40271U 14062A   22356.12208021 -.00000128  00000+0  00000+0 0  9991
2 40271   0.0170 348.5995 0002512 117.5039 293.4541  1.00269950 30006
DIRECTV 14              
1 40333U 14078B   22356.39355184 -.00000104  00000+0  00000+0 0  9993
2 40333   0.0319  68.8785 0000322  76.7923 347.6978  1.00272338 29484
DIRECTV 15              
1 40663U 15026A   22356.11757541 -.00000080  00000+0  00000+0 0  9999
2 40663   0.0181  15.1724 0000534 122.7786 252.1693  1.00267856 27772
SKY MEXICO-1            
1 40664U 15026B   22356.20416219 -.00000212  00000+0  00000+0 0  9991
2 40664   0.0163 328.4777 0001942 308.9643 168.0372  1.00270203 27774
INTELSAT 34 (IS-34)     
1 40874U 15039A   22356.42232088 -.00000264  00000+0  00000+0 0  9999
2 40874   0.0019  11.0732 0000426 126.2930  50.1445  1.00269807 26868
INTELSAT 31 (IS-31)     
1 41581U 16035A   22355.01785303 -.00000125  00000+0  00000+0 0  9995
2 41581   0.0224 273.9540 0002352 281.8274 165.1706  1.00270746 23911
INTELSAT 36 (IS-36)     
1 41747U 16053A   22355.48058247  .00000000  00000+0  00000+0 0  9991
2 41747   0.0111   1.0407 0000941  22.2835 308.2183  1.00270714 23165
INTELSAT 33E (IS-33E)   
1 41748U 16053B   22356.19616536  .00000071  00000+0  00000+0 0  9990
2 41748   0.0260 303.7202 0001630 312.8678 324.7498  1.00271539 23455
INTELSAT 32E (IS-32E)   
1 41945U 17007B   22355.45826823 -.00000244  00000+0  00000+0 0  9992
2 41945   0.0179  18.1538 0000444  95.2431  98.4074  1.00268837 21475
INTELSAT 35E (IS-35E)   
1 42818U 17041A   22356.09702257 -.00000215  00000+0  00000+0 0  9993
2 42818   0.0195 297.8751 0001494 338.6224 174.5804  1.00270715 20043
INTELSAT 37E (IS-37E)   
1 42950U 17059A   22356.19104612 -.00000119  00000+0  00000+0 0  9994
2 42950   0.0249  12.5166 0002490 260.0629 228.9093  1.00270938 19281
AZERSPACE 2 (IS-38)     
1 43632U 18074A   22356.19320175  .00000159  00000+0  00000+0 0  9997
2 43632   0.0175  20.1939 0001156 258.2606 286.9465  1.00271392 15673
HORIZONS-3E             
1 43633U 18074B   22356.50481679 -.00000010  00000+0  00000+0 0  9997
2 43633   0.0481 160.1654 0001074 128.0132 153.5677  1.00268238 15567
AT&T T-16               
1 44333U 19034A   22355.66197291 -.00000091  00000+0  00000+0 0  9991
2 44333   0.0327  81.6965 0000390  52.8952  93.0545  1.00268708 12853
INTELSAT 39 (IS-39)     
1 44476U 19049B   22356.12486441  .00000056  00000+0  00000+0 0  9995
2 44476   0.0014  11.1757 0001193 118.2729  68.1198  1.00270360 12362
GALAXY 30 (G-30)        
1 46114U 20056C   22355.47767817  .00000062  00000+0  00000+0 0  9999
2 46114   0.0181  12.6268 0001832 248.9222 235.4366  1.00269558  8526
GALAXY 33 (G-33)        
1 54026U 22128A   22356.39910306  .00000101  00000+0  00000+0 0  9991
2 54026   0.0118  29.7550 0001599 242.9016 188.9651  1.00270081   989
GALAXY 34 (G-34)        
1 54027U 22128B   22356.10636552  .00000081  00000+0  00000+0 0  9996
2 54027   0.0217 348.9272 0001665  95.7687 275.3230  1.00268375  1011
GALAXY 31 (G-31)        
1 54243U 22153A   22355.29378775  .00000154  00000+0  00000+0 0  9994
2 54243   0.0467 151.4070 0003873 237.1668  18.1978  1.00337404   364
GALAXY 32 (G-32)        
1 54244U 22153B   22355.55566275  .00000156  00000+0  00000+0 0  9990
2 54244   0.0189  43.2763 0002190 241.5468 216.2774  1.00270944   394
GALAXY 35 (G-35)        
1 54741U 22170A   22354.48052271  .00000088  00000+0  00000+0 0  9992
2 54741   3.2800 218.0866 5571715 180.1209  86.7088  1.94784646   128
GALAXY 36 (G-36)        
1 54742U 22170B   22350.43859110 -.00000334  00000+0  00000+0 0  9996
2 54742   3.4336 218.5937 5690547 178.9969 147.4018  1.97366996    59
